CCSDS_OMM_VERS = 2.0
CREATION_DATE  = 
ORIGINATOR     = 

OBJECT_NAME    = H-2A R/B
OBJECT_ID      = 2012-025E
CENTER_NAME    = EARTH
REF_FRAME      = TEME
TIME_SYSTEM    = UTC
MEAN_ELEMENT_THEORY = SGP/SGP4

EPOCH          = 2025-10-30T07:31:12.125856
MEAN_MOTION    = 14.93975792
ECCENTRICITY   = .00463823
INCLINATION    = 98.4521
RA_OF_ASC_NODE = 255.2284
ARG_OF_PERICENTER = 20.8447
MEAN_ANOMALY   = 339.4649

EPHEMERIS_TYPE = 0
CLASSIFICATION_TYPE = U
NORAD_CAT_ID   = 38341
ELEMENT_SET_NO = 999
REV_AT_EPOCH   = 72874
BSTAR          = .4697522E-3
MEAN_MOTION_DOT = .5044E-4
MEAN_MOTION_DDOT = 0

CCSDS_OMM_VERS = 2.0
CREATION_DATE  = 
ORIGINATOR     = 

OBJECT_NAME    = SHIJIAN-16 (SJ-16)
OBJECT_ID      = 2013-057A
CENTER_NAME    = EARTH
REF_FRAME      = TEME
TIME_SYSTEM    = UTC
MEAN_ELEMENT_THEORY = SGP/SGP4

EPOCH          = 2025-10-30T08:22:14.998944
MEAN_MOTION    = 14.91742225
ECCENTRICITY   = .00160127
INCLINATION    = 74.9714
RA_OF_ASC_NODE = 71.7378
ARG_OF_PERICENTER = 67.3681
MEAN_ANOMALY   = 292.9199

EPHEMERIS_TYPE = 0
CLASSIFICATION_TYPE = U
NORAD_CAT_ID   = 39358
ELEMENT_SET_NO = 999
REV_AT_EPOCH   = 65206
BSTAR          = .18403585E-3
MEAN_MOTION_DOT = .1829E-4
MEAN_MOTION_DDOT = 0

CCSDS_OMM_VERS = 2.0
CREATION_DATE  = 
ORIGINATOR     = 

OBJECT_NAME    = SL-4 R/B
OBJECT_ID      = 2014-021B
CENTER_NAME    = EARTH
REF_FRAME      = TEME
TIME_SYSTEM    = UTC
MEAN_ELEMENT_THEORY = SGP/SGP4

EPOCH          = 2025-10-30T00:29:21.215616
MEAN_MOTION    = 15.34978099
ECCENTRICITY   = .01051809
INCLINATION    = 51.6069
RA_OF_ASC_NODE = 252.8101
ARG_OF_PERICENTER = 348.6539
MEAN_ANOMALY   = 11.2073

EPHEMERIS_TYPE = 0
CLASSIFICATION_TYPE = U
NORAD_CAT_ID   = 39679
ELEMENT_SET_NO = 999
REV_AT_EPOCH   = 63617
BSTAR          = .53242951E-3
MEAN_MOTION_DOT = .21645E-3
MEAN_MOTION_DDOT = 0

CCSDS_OMM_VERS = 2.0
CREATION_DATE  = 
ORIGINATOR     = 

OBJECT_NAME    = ALOS-2
OBJECT_ID      = 2014-029A
CENTER_NAME    = EARTH
REF_FRAME      = TEME
TIME_SYSTEM    = UTC
MEAN_ELEMENT_THEORY = SGP/SGP4

EPOCH          = 2025-10-30T06:07:15.725568
MEAN_MOTION    = 14.79455989
ECCENTRICITY   = .0001128
INCLINATION    = 97.9227
RA_OF_ASC_NODE = 38.7196
ARG_OF_PERICENTER = 98.8533
MEAN_ANOMALY   = 261.2807

EPHEMERIS_TYPE = 0
CLASSIFICATION_TYPE = U
NORAD_CAT_ID   = 39766
ELEMENT_SET_NO = 999
REV_AT_EPOCH   = 61758
BSTAR          = .40193885E-3
MEAN_MOTION_DOT = .295E-4
MEAN_MOTION_DDOT = 0

CCSDS_OMM_VERS = 2.0
CREATION_DATE  = 
ORIGINATOR     = 

OBJECT_NAME    = YAOGAN-29
OBJECT_ID      = 2015-069A
CENTER_NAME    = EARTH
REF_FRAME      = TEME
TIME_SYSTEM    = UTC
MEAN_ELEMENT_THEORY = SGP/SGP4

EPOCH          = 2025-10-30T07:05:49.640352
MEAN_MOTION    = 14.82809405
ECCENTRICITY   = .00027448
INCLINATION    = 98.0270
RA_OF_ASC_NODE = 326.3177
ARG_OF_PERICENTER = 71.3012
MEAN_ANOMALY   = 288.8498

EPHEMERIS_TYPE = 0
CLASSIFICATION_TYPE = U
NORAD_CAT_ID   = 41038
ELEMENT_SET_NO = 999
REV_AT_EPOCH   = 53655
BSTAR          = .88608709E-4
MEAN_MOTION_DOT = .662E-5
MEAN_MOTION_DDOT = 0

CCSDS_OMM_VERS = 2.0
CREATION_DATE  = 
ORIGINATOR     = 

OBJECT_NAME    = ASTRO-H (HITOMI)
OBJECT_ID      = 2016-012A
CENTER_NAME    = EARTH
REF_FRAME      = TEME
TIME_SYSTEM    = UTC
MEAN_ELEMENT_THEORY = SGP/SGP4

EPOCH          = 2025-10-30T04:04:53.561568
MEAN_MOTION    = 15.08954880
ECCENTRICITY   = .00098472
INCLINATION    = 30.9984
RA_OF_ASC_NODE = 118.1654
ARG_OF_PERICENTER = 99.4776
MEAN_ANOMALY   = 260.6975

EPHEMERIS_TYPE = 0
CLASSIFICATION_TYPE = U
NORAD_CAT_ID   = 41337
ELEMENT_SET_NO = 999
REV_AT_EPOCH   = 53249
BSTAR          = .2678743E-3
MEAN_MOTION_DOT = .4431E-4
MEAN_MOTION_DDOT = 0

CCSDS_OMM_VERS = 2.0
CREATION_DATE  = 
ORIGINATOR     = 

OBJECT_NAME    = HXMT (HUIYAN)
OBJECT_ID      = 2017-034A
CENTER_NAME    = EARTH
REF_FRAME      = TEME
TIME_SYSTEM    = UTC
MEAN_ELEMENT_THEORY = SGP/SGP4

EPOCH          = 2025-10-30T07:16:52.085568
MEAN_MOTION    = 15.15528302
ECCENTRICITY   = .00320345
INCLINATION    = 43.0157
RA_OF_ASC_NODE = 20.5431
ARG_OF_PERICENTER = 132.7568
MEAN_ANOMALY   = 227.5983

EPHEMERIS_TYPE = 0
CLASSIFICATION_TYPE = U
NORAD_CAT_ID   = 42758
ELEMENT_SET_NO = 999
REV_AT_EPOCH   = 46274
BSTAR          = .41429368E-3
MEAN_MOTION_DOT = .7865E-4
MEAN_MOTION_DDOT = 0

CCSDS_OMM_VERS = 2.0
CREATION_DATE  = 
ORIGINATOR     = 

OBJECT_NAME    = CZ-2C R/B
OBJECT_ID      = 2018-054D
CENTER_NAME    = EARTH
REF_FRAME      = TEME
TIME_SYSTEM    = UTC
MEAN_ELEMENT_THEORY = SGP/SGP4

EPOCH          = 2025-10-29T20:09:24.534720
MEAN_MOTION    = 15.64919798
ECCENTRICITY   = .00255696
INCLINATION    = 35.1347
RA_OF_ASC_NODE = 116.4776
ARG_OF_PERICENTER = 77.9021
MEAN_ANOMALY   = 282.4572

EPHEMERIS_TYPE = 0
CLASSIFICATION_TYPE = U
NORAD_CAT_ID   = 43521
ELEMENT_SET_NO = 999
REV_AT_EPOCH   = 40815
BSTAR          = .86238067E-3
MEAN_MOTION_DOT = .89814E-3
MEAN_MOTION_DDOT = 0

CCSDS_OMM_VERS = 2.0
CREATION_DATE  = 
ORIGINATOR     = 

OBJECT_NAME    = SAOCOM 1A
OBJECT_ID      = 2018-076A
CENTER_NAME    = EARTH
REF_FRAME      = TEME
TIME_SYSTEM    = UTC
MEAN_ELEMENT_THEORY = SGP/SGP4

EPOCH          = 2025-10-29T22:12:03.987360
MEAN_MOTION    = 14.82171502
ECCENTRICITY   = .00014227
INCLINATION    = 97.8876
RA_OF_ASC_NODE = 127.9806
ARG_OF_PERICENTER = 85.8801
MEAN_ANOMALY   = 274.2575

EPHEMERIS_TYPE = 0
CLASSIFICATION_TYPE = U
NORAD_CAT_ID   = 43641
ELEMENT_SET_NO = 999
REV_AT_EPOCH   = 38199
BSTAR          = .9318159E-4
MEAN_MOTION_DOT = .69E-5
MEAN_MOTION_DDOT = 0

CCSDS_OMM_VERS = 2.0
CREATION_DATE  = 
ORIGINATOR     = 

OBJECT_NAME    = H-2A R/B
OBJECT_ID      = 2018-084L
CENTER_NAME    = EARTH
REF_FRAME      = TEME
TIME_SYSTEM    = UTC
MEAN_ELEMENT_THEORY = SGP/SGP4

EPOCH          = 2025-10-30T05:59:23.708544
MEAN_MOTION    = 15.35251192
ECCENTRICITY   = .00294458
INCLINATION    = 98.8820
RA_OF_ASC_NODE = 128.3904
ARG_OF_PERICENTER = 113.6801
MEAN_ANOMALY   = 246.7533

EPHEMERIS_TYPE = 0
CLASSIFICATION_TYPE = U
NORAD_CAT_ID   = 43682
ELEMENT_SET_NO = 999
REV_AT_EPOCH   = 38572
BSTAR          = .72887743E-3
MEAN_MOTION_DOT = .25253E-3
MEAN_MOTION_DDOT = 0

CCSDS_OMM_VERS = 2.0
CREATION_DATE  = 
ORIGINATOR     = 

OBJECT_NAME    = SAOCOM 1B
OBJECT_ID      = 2020-059A
CENTER_NAME    = EARTH
REF_FRAME      = TEME
TIME_SYSTEM    = UTC
MEAN_ELEMENT_THEORY = SGP/SGP4

EPOCH          = 2025-10-30T07:03:12.389760
MEAN_MOTION    = 14.82163259
ECCENTRICITY   = .0001355
INCLINATION    = 97.8869
RA_OF_ASC_NODE = 127.4471
ARG_OF_PERICENTER = 88.1781
MEAN_ANOMALY   = 271.9588

EPHEMERIS_TYPE = 0
CLASSIFICATION_TYPE = U
NORAD_CAT_ID   = 46265
ELEMENT_SET_NO = 999
REV_AT_EPOCH   = 27943
BSTAR          = .94913295E-4
MEAN_MOTION_DOT = .704E-5
MEAN_MOTION_DDOT = 0

CCSDS_OMM_VERS = 2.0
CREATION_DATE  = 
ORIGINATOR     = 

OBJECT_NAME    = CSS (TIANHE)
OBJECT_ID      = 2021-035A
CENTER_NAME    = EARTH
REF_FRAME      = TEME
TIME_SYSTEM    = UTC
MEAN_ELEMENT_THEORY = SGP/SGP4

EPOCH          = 2025-10-30T00:56:20.710176
MEAN_MOTION    = 15.59974083
ECCENTRICITY   = .00070971
INCLINATION    = 41.4666
RA_OF_ASC_NODE = 282.1411
ARG_OF_PERICENTER = 291.0843
MEAN_ANOMALY   = 68.9237

EPHEMERIS_TYPE = 0
CLASSIFICATION_TYPE = U
NORAD_CAT_ID   = 48274
ELEMENT_SET_NO = 999
REV_AT_EPOCH   = 25772
BSTAR          = .5000999E-3
MEAN_MOTION_DOT = .41478E-3
MEAN_MOTION_DDOT = 0

