H-2A R/B                
1 38341U 12025E   25303.31333479  .00005044  00000+0  46975-3 0  9991
2 38341  98.4521 255.2284 0046382  20.8447 339.4649 14.93975792728748
SHIJIAN-16 (SJ-16)      
1 39358U 13057A   25303.34878471  .00001829  00000+0  18404-3 0  9998
2 39358  74.9714  71.7378 0016012  67.3681 292.9199 14.91742225652063
SL-4 R/B                
1 39679U 14021B   25303.02038444  .00021645  00000+0  53243-3 0  9997
2 39679  51.6069 252.8101 0105180 348.6539  11.2073 15.34978099636177
ALOS-2                  
1 39766U 14029A   25303.25504312  .00002950  00000+0  40194-3 0  9998
2 39766  97.9227  38.7196 0001128  98.8533 261.2807 14.79455989617585
YAOGAN-29               
1 41038U 15069A   25303.29571343  .00000662  00000+0  88609-4 0  9992
2 41038  98.0270 326.3177 0002744  71.3012 288.8498 14.82809405536556
ASTRO-H (HITOMI)        
1 41337U 16012A   25303.17006437  .00004431  00000+0  26787-3 0  9993
2 41337  30.9984 118.1654 0009847  99.4776 260.6975 15.08954880532495
HXMT (HUIYAN)           
1 42758U 17034A   25303.30338062  .00007865  00000+0  41429-3 0  9997
2 42758  43.0157  20.5431 0032034 132.7568 227.5983 15.15528302462748
CZ-2C R/B               
1 43521U 18054D   25302.83986730  .00089814  00000+0  86238-3 0  9998
2 43521  35.1347 116.4776 0025569  77.9021 282.4572 15.64919798408152
SAOCOM 1A               
1 43641U 18076A   25302.92504615  .00000690  00000+0  93182-4 0  9995
2 43641  97.8876 127.9806 0001422  85.8801 274.2575 14.82171502381990
H-2A R/B                
1 43682U 18084L   25303.24957996  .00025253  00000+0  72888-3 0  9990
2 43682  98.8820 128.3904 0029445 113.6801 246.7533 15.35251192385720
SAOCOM 1B               
1 46265U 20059A   25303.29389340  .00000704  00000+0  94913-4 0  9990
2 46265  97.8869 127.4471 0001355  88.1781 271.9588 14.82163259279431
CSS (TIANHE)            
1 48274U 21035A   25303.03912859  .00041478  00000+0  50010-3 0  9998
2 48274  41.4666 282.1411 0007097 291.0843  68.9237 15.59974083257722
